<?xml version="1.0" encoding="UTF-8" standalone="no" ?>
<gpx xmlns="http://www.topografix.com/GPX/1/1" creator="http://nakarte.me" xmlns:xsi="http://www.w3.org/2001/XMLSchema-instance" xsi:schemaLocation="http://www.topografix.com/GPX/1/1 http://www.topografix.com/GPX/1/1/gpx.xsd" version="1.1">
	<metadata>
		<time>2026-04-09T15:38:07.549Z</time>
	</metadata>
	<wpt lat="43.161773" lon="77.062826">
		<name>Barrier</name>
	</wpt>
	<wpt lat="43.165858" lon="77.071667">
		<name>Turn left</name>
	</wpt>
	<wpt lat="43.164097" lon="77.075154">
		<name>Picnic</name>
	</wpt>
	<wpt lat="43.163487" lon="77.077256">
		<name>Turn left</name>
	</wpt>
	<wpt lat="43.160020" lon="77.102673">
		<name>Swing</name>
	</wpt>
	<wpt lat="43.157719" lon="77.107565">
		<name>Camping</name>
	</wpt>
	<wpt lat="43.155364" lon="77.114239">
		<name>Pointer Furmanov</name>
	</wpt>
	<trk>
		<name>pik-furmanova-medeo</name>
		<trkseg>
			<trkpt lat="43.159804" lon="77.058330"><time>1970-01-01T00:00:01.000Z</time></trkpt>
			<trkpt lat="43.159830" lon="77.058265"><time>1970-01-01T00:00:01.000Z</time></trkpt>
			<trkpt lat="43.159879" lon="77.058260"><time>1970-01-01T00:00:01.000Z</time></trkpt>
			<trkpt lat="43.159955" lon="77.058447"><time>1970-01-01T00:00:01.000Z</time></trkpt>
			<trkpt lat="43.160097" lon="77.059061"><time>1970-01-01T00:00:01.000Z</time></trkpt>
			<trkpt lat="43.160236" lon="77.059367"><time>1970-01-01T00:00:01.000Z</time></trkpt>
			<trkpt lat="43.160381" lon="77.059353"><time>1970-01-01T00:00:01.000Z</time></trkpt>
			<trkpt lat="43.160500" lon="77.059218"><time>1970-01-01T00:00:01.000Z</time></trkpt>
			<trkpt lat="43.160607" lon="77.059209"><time>1970-01-01T00:00:01.000Z</time></trkpt>
			<trkpt lat="43.161017" lon="77.059052"><time>1970-01-01T00:00:01.000Z</time></trkpt>
			<trkpt lat="43.161097" lon="77.059114"><time>1970-01-01T00:00:01.000Z</time></trkpt>
			<trkpt lat="43.161206" lon="77.059373"><time>1970-01-01T00:00:01.000Z</time></trkpt>
			<trkpt lat="43.161447" lon="77.060678"><time>1970-01-01T00:00:01.000Z</time></trkpt>
			<trkpt lat="43.161528" lon="77.061731"><time>1970-01-01T00:00:01.000Z</time></trkpt>
			<trkpt lat="43.161671" lon="77.062310"><time>1970-01-01T00:00:01.000Z</time></trkpt>
			<trkpt lat="43.161856" lon="77.063361"><time>1970-01-01T00:00:01.000Z</time></trkpt>
			<trkpt lat="43.162185" lon="77.064389"><time>1970-01-01T00:00:01.000Z</time></trkpt>
			<trkpt lat="43.162557" lon="77.065343"><time>1970-01-01T00:00:01.000Z</time></trkpt>
			<trkpt lat="43.162872" lon="77.065824"><time>1970-01-01T00:00:01.000Z</time></trkpt>
			<trkpt lat="43.163144" lon="77.066161"><time>1970-01-01T00:00:01.000Z</time></trkpt>
			<trkpt lat="43.163275" lon="77.066397"><time>1970-01-01T00:00:01.000Z</time></trkpt>
			<trkpt lat="43.163663" lon="77.066838"><time>1970-01-01T00:00:01.000Z</time></trkpt>
			<trkpt lat="43.164221" lon="77.067143"><time>1970-01-01T00:00:01.000Z</time></trkpt>
			<trkpt lat="43.164429" lon="77.067207"><time>1970-01-01T00:00:01.000Z</time></trkpt>
			<trkpt lat="43.165023" lon="77.067512"><time>1970-01-01T00:00:01.000Z</time></trkpt>
			<trkpt lat="43.165487" lon="77.067863"><time>1970-01-01T00:00:01.000Z</time></trkpt>
			<trkpt lat="43.165683" lon="77.068108"><time>1970-01-01T00:00:01.000Z</time></trkpt>
			<trkpt lat="43.165951" lon="77.068564"><time>1970-01-01T00:00:01.000Z</time></trkpt>
			<trkpt lat="43.166111" lon="77.069035"><time>1970-01-01T00:00:01.000Z</time></trkpt>
			<trkpt lat="43.166206" lon="77.069651"><time>1970-01-01T00:00:01.000Z</time></trkpt>
			<trkpt lat="43.166223" lon="77.070123"><time>1970-01-01T00:00:01.000Z</time></trkpt>
			<trkpt lat="43.166195" lon="77.070459"><time>1970-01-01T00:00:01.000Z</time></trkpt>
			<trkpt lat="43.166036" lon="77.071103"><time>1970-01-01T00:00:01.000Z</time></trkpt>
			<trkpt lat="43.165843" lon="77.071620"><time>1970-01-01T00:00:01.000Z</time></trkpt>
			<trkpt lat="43.165889" lon="77.071797"><time>1970-01-01T00:00:01.000Z</time></trkpt>
			<trkpt lat="43.166165" lon="77.072443"><time>1970-01-01T00:00:01.000Z</time></trkpt>
			<trkpt lat="43.166125" lon="77.072895"><time>1970-01-01T00:00:01.000Z</time></trkpt>
			<trkpt lat="43.166024" lon="77.073200"><time>1970-01-01T00:00:01.000Z</time></trkpt>
			<trkpt lat="43.165992" lon="77.073467"><time>1970-01-01T00:00:01.000Z</time></trkpt>
			<trkpt lat="43.165827" lon="77.073714"><time>1970-01-01T00:00:01.000Z</time></trkpt>
			<trkpt lat="43.165685" lon="77.073721"><time>1970-01-01T00:00:01.000Z</time></trkpt>
			<trkpt lat="43.165509" lon="77.073861"><time>1970-01-01T00:00:01.000Z</time></trkpt>
			<trkpt lat="43.165286" lon="77.074325"><time>1970-01-01T00:00:01.000Z</time></trkpt>
			<trkpt lat="43.165069" lon="77.074492"><time>1970-01-01T00:00:01.000Z</time></trkpt>
			<trkpt lat="43.164847" lon="77.074808"><time>1970-01-01T00:00:01.000Z</time></trkpt>
			<trkpt lat="43.164370" lon="77.075066"><time>1970-01-01T00:00:01.000Z</time></trkpt>
			<trkpt lat="43.164224" lon="77.075044"><time>1970-01-01T00:00:01.000Z</time></trkpt>
			<trkpt lat="43.164087" lon="77.075126"><time>1970-01-01T00:00:01.000Z</time></trkpt>
			<trkpt lat="43.164003" lon="77.075191"><time>1970-01-01T00:00:01.000Z</time></trkpt>
			<trkpt lat="43.163888" lon="77.075417"><time>1970-01-01T00:00:01.000Z</time></trkpt>
			<trkpt lat="43.163782" lon="77.075947"><time>1970-01-01T00:00:01.000Z</time></trkpt>
			<trkpt lat="43.163559" lon="77.076648"><time>1970-01-01T00:00:01.000Z</time></trkpt>
			<trkpt lat="43.163468" lon="77.077095"><time>1970-01-01T00:00:01.000Z</time></trkpt>
			<trkpt lat="43.163472" lon="77.077239"><time>1970-01-01T00:00:01.000Z</time></trkpt>
			<trkpt lat="43.163428" lon="77.077255"><time>1970-01-01T00:00:01.000Z</time></trkpt>
			<trkpt lat="43.163479" lon="77.077267"><time>1970-01-01T00:00:01.000Z</time></trkpt>
			<trkpt lat="43.163516" lon="77.077390"><time>1970-01-01T00:00:01.000Z</time></trkpt>
			<trkpt lat="43.163455" lon="77.077717"><time>1970-01-01T00:00:01.000Z</time></trkpt>
			<trkpt lat="43.163303" lon="77.078087"><time>1970-01-01T00:00:01.000Z</time></trkpt>
			<trkpt lat="43.163337" lon="77.078438"><time>1970-01-01T00:00:01.000Z</time></trkpt>
			<trkpt lat="43.163249" lon="77.078887"><time>1970-01-01T00:00:01.000Z</time></trkpt>
			<trkpt lat="43.163141" lon="77.079105"><time>1970-01-01T00:00:01.000Z</time></trkpt>
			<trkpt lat="43.163191" lon="77.079299"><time>1970-01-01T00:00:01.000Z</time></trkpt>
			<trkpt lat="43.163193" lon="77.079492"><time>1970-01-01T00:00:01.000Z</time></trkpt>
			<trkpt lat="43.163168" lon="77.079622"><time>1970-01-01T00:00:01.000Z</time></trkpt>
			<trkpt lat="43.163093" lon="77.079709"><time>1970-01-01T00:00:01.000Z</time></trkpt>
			<trkpt lat="43.163101" lon="77.080022"><time>1970-01-01T00:00:01.000Z</time></trkpt>
			<trkpt lat="43.162979" lon="77.080286"><time>1970-01-01T00:00:01.000Z</time></trkpt>
			<trkpt lat="43.162986" lon="77.080354"><time>1970-01-01T00:00:01.000Z</time></trkpt>
			<trkpt lat="43.162887" lon="77.080514"><time>1970-01-01T00:00:01.000Z</time></trkpt>
			<trkpt lat="43.162732" lon="77.081013"><time>1970-01-01T00:00:01.000Z</time></trkpt>
			<trkpt lat="43.162564" lon="77.081317"><time>1970-01-01T00:00:01.000Z</time></trkpt>
			<trkpt lat="43.162552" lon="77.081515"><time>1970-01-01T00:00:01.000Z</time></trkpt>
			<trkpt lat="43.162502" lon="77.081622"><time>1970-01-01T00:00:01.000Z</time></trkpt>
			<trkpt lat="43.162480" lon="77.081568"><time>1970-01-01T00:00:01.000Z</time></trkpt>
			<trkpt lat="43.162490" lon="77.081639"><time>1970-01-01T00:00:01.000Z</time></trkpt>
			<trkpt lat="43.162442" lon="77.081663"><time>1970-01-01T00:00:01.000Z</time></trkpt>
			<trkpt lat="43.162249" lon="77.082260"><time>1970-01-01T00:00:01.000Z</time></trkpt>
			<trkpt lat="43.162198" lon="77.082367"><time>1970-01-01T00:00:01.000Z</time></trkpt>
			<trkpt lat="43.161994" lon="77.082545"><time>1970-01-01T00:00:01.000Z</time></trkpt>
			<trkpt lat="43.161956" lon="77.082663"><time>1970-01-01T00:00:01.000Z</time></trkpt>
			<trkpt lat="43.161862" lon="77.082668"><time>1970-01-01T00:00:01.000Z</time></trkpt>
			<trkpt lat="43.161829" lon="77.082719"><time>1970-01-01T00:00:01.000Z</time></trkpt>
			<trkpt lat="43.161814" lon="77.082905"><time>1970-01-01T00:00:01.000Z</time></trkpt>
			<trkpt lat="43.161551" lon="77.083156"><time>1970-01-01T00:00:01.000Z</time></trkpt>
			<trkpt lat="43.161382" lon="77.083389"><time>1970-01-01T00:00:01.000Z</time></trkpt>
			<trkpt lat="43.161200" lon="77.083993"><time>1970-01-01T00:00:01.000Z</time></trkpt>
			<trkpt lat="43.161267" lon="77.084077"><time>1970-01-01T00:00:01.000Z</time></trkpt>
			<trkpt lat="43.161183" lon="77.084115"><time>1970-01-01T00:00:01.000Z</time></trkpt>
			<trkpt lat="43.161187" lon="77.084247"><time>1970-01-01T00:00:01.000Z</time></trkpt>
			<trkpt lat="43.161268" lon="77.084404"><time>1970-01-01T00:00:01.000Z</time></trkpt>
			<trkpt lat="43.161250" lon="77.084594"><time>1970-01-01T00:00:01.000Z</time></trkpt>
			<trkpt lat="43.161170" lon="77.084654"><time>1970-01-01T00:00:01.000Z</time></trkpt>
			<trkpt lat="43.161142" lon="77.084845"><time>1970-01-01T00:00:01.000Z</time></trkpt>
			<trkpt lat="43.161158" lon="77.085028"><time>1970-01-01T00:00:01.000Z</time></trkpt>
			<trkpt lat="43.161216" lon="77.085198"><time>1970-01-01T00:00:01.000Z</time></trkpt>
			<trkpt lat="43.161220" lon="77.085377"><time>1970-01-01T00:00:01.000Z</time></trkpt>
			<trkpt lat="43.161273" lon="77.085391"><time>1970-01-01T00:00:01.000Z</time></trkpt>
			<trkpt lat="43.161314" lon="77.085519"><time>1970-01-01T00:00:01.000Z</time></trkpt>
			<trkpt lat="43.161305" lon="77.085785"><time>1970-01-01T00:00:01.000Z</time></trkpt>
			<trkpt lat="43.161353" lon="77.085804"><time>1970-01-01T00:00:01.000Z</time></trkpt>
			<trkpt lat="43.161466" lon="77.086012"><time>1970-01-01T00:00:01.000Z</time></trkpt>
			<trkpt lat="43.161468" lon="77.086080"><time>1970-01-01T00:00:01.000Z</time></trkpt>
			<trkpt lat="43.161397" lon="77.086160"><time>1970-01-01T00:00:01.000Z</time></trkpt>
			<trkpt lat="43.161580" lon="77.086360"><time>1970-01-01T00:00:01.000Z</time></trkpt>
			<trkpt lat="43.161660" lon="77.086602"><time>1970-01-01T00:00:01.000Z</time></trkpt>
			<trkpt lat="43.161649" lon="77.086662"><time>1970-01-01T00:00:01.000Z</time></trkpt>
			<trkpt lat="43.161695" lon="77.086658"><time>1970-01-01T00:00:01.000Z</time></trkpt>
			<trkpt lat="43.161878" lon="77.087093"><time>1970-01-01T00:00:01.000Z</time></trkpt>
			<trkpt lat="43.161978" lon="77.087137"><time>1970-01-01T00:00:01.000Z</time></trkpt>
			<trkpt lat="43.162030" lon="77.087259"><time>1970-01-01T00:00:01.000Z</time></trkpt>
			<trkpt lat="43.162052" lon="77.087507"><time>1970-01-01T00:00:01.000Z</time></trkpt>
			<trkpt lat="43.162165" lon="77.087712"><time>1970-01-01T00:00:01.000Z</time></trkpt>
			<trkpt lat="43.162172" lon="77.087775"><time>1970-01-01T00:00:01.000Z</time></trkpt>
			<trkpt lat="43.162127" lon="77.087791"><time>1970-01-01T00:00:01.000Z</time></trkpt>
			<trkpt lat="43.162175" lon="77.087808"><time>1970-01-01T00:00:01.000Z</time></trkpt>
			<trkpt lat="43.162199" lon="77.087865"><time>1970-01-01T00:00:01.000Z</time></trkpt>
			<trkpt lat="43.162276" lon="77.088245"><time>1970-01-01T00:00:01.000Z</time></trkpt>
			<trkpt lat="43.162271" lon="77.088569"><time>1970-01-01T00:00:01.000Z</time></trkpt>
			<trkpt lat="43.162334" lon="77.089184"><time>1970-01-01T00:00:01.000Z</time></trkpt>
			<trkpt lat="43.162308" lon="77.089856"><time>1970-01-01T00:00:01.000Z</time></trkpt>
			<trkpt lat="43.162471" lon="77.090246"><time>1970-01-01T00:00:01.000Z</time></trkpt>
			<trkpt lat="43.162476" lon="77.090520"><time>1970-01-01T00:00:01.000Z</time></trkpt>
			<trkpt lat="43.162435" lon="77.090721"><time>1970-01-01T00:00:01.000Z</time></trkpt>
			<trkpt lat="43.162634" lon="77.091078"><time>1970-01-01T00:00:01.000Z</time></trkpt>
			<trkpt lat="43.162811" lon="77.091572"><time>1970-01-01T00:00:01.000Z</time></trkpt>
			<trkpt lat="43.162850" lon="77.091964"><time>1970-01-01T00:00:01.000Z</time></trkpt>
			<trkpt lat="43.162822" lon="77.092290"><time>1970-01-01T00:00:01.000Z</time></trkpt>
			<trkpt lat="43.162762" lon="77.092390"><time>1970-01-01T00:00:01.000Z</time></trkpt>
			<trkpt lat="43.162705" lon="77.092699"><time>1970-01-01T00:00:01.000Z</time></trkpt>
			<trkpt lat="43.162522" lon="77.093085"><time>1970-01-01T00:00:01.000Z</time></trkpt>
			<trkpt lat="43.162594" lon="77.093166"><time>1970-01-01T00:00:01.000Z</time></trkpt>
			<trkpt lat="43.162630" lon="77.093417"><time>1970-01-01T00:00:01.000Z</time></trkpt>
			<trkpt lat="43.162548" lon="77.093946"><time>1970-01-01T00:00:01.000Z</time></trkpt>
			<trkpt lat="43.162717" lon="77.094618"><time>1970-01-01T00:00:01.000Z</time></trkpt>
			<trkpt lat="43.162763" lon="77.095438"><time>1970-01-01T00:00:01.000Z</time></trkpt>
			<trkpt lat="43.162724" lon="77.095970"><time>1970-01-01T00:00:01.000Z</time></trkpt>
			<trkpt lat="43.162773" lon="77.096589"><time>1970-01-01T00:00:01.000Z</time></trkpt>
			<trkpt lat="43.162832" lon="77.096708"><time>1970-01-01T00:00:01.000Z</time></trkpt>
			<trkpt lat="43.162831" lon="77.096790"><time>1970-01-01T00:00:01.000Z</time></trkpt>
			<trkpt lat="43.162710" lon="77.097150"><time>1970-01-01T00:00:01.000Z</time></trkpt>
			<trkpt lat="43.162602" lon="77.097306"><time>1970-01-01T00:00:01.000Z</time></trkpt>
			<trkpt lat="43.162353" lon="77.097515"><time>1970-01-01T00:00:01.000Z</time></trkpt>
			<trkpt lat="43.162308" lon="77.097542"><time>1970-01-01T00:00:01.000Z</time></trkpt>
			<trkpt lat="43.162256" lon="77.097525"><time>1970-01-01T00:00:01.000Z</time></trkpt>
			<trkpt lat="43.162186" lon="77.097705"><time>1970-01-01T00:00:01.000Z</time></trkpt>
			<trkpt lat="43.162107" lon="77.097799"><time>1970-01-01T00:00:01.000Z</time></trkpt>
			<trkpt lat="43.161987" lon="77.098316"><time>1970-01-01T00:00:01.000Z</time></trkpt>
			<trkpt lat="43.161834" lon="77.098570"><time>1970-01-01T00:00:01.000Z</time></trkpt>
			<trkpt lat="43.161714" lon="77.099611"><time>1970-01-01T00:00:01.000Z</time></trkpt>
			<trkpt lat="43.161467" lon="77.100103"><time>1970-01-01T00:00:01.000Z</time></trkpt>
			<trkpt lat="43.161462" lon="77.100302"><time>1970-01-01T00:00:01.000Z</time></trkpt>
			<trkpt lat="43.161253" lon="77.100955"><time>1970-01-01T00:00:01.000Z</time></trkpt>
			<trkpt lat="43.161105" lon="77.101104"><time>1970-01-01T00:00:01.000Z</time></trkpt>
			<trkpt lat="43.160961" lon="77.101165"><time>1970-01-01T00:00:01.000Z</time></trkpt>
			<trkpt lat="43.160899" lon="77.101283"><time>1970-01-01T00:00:01.000Z</time></trkpt>
			<trkpt lat="43.160586" lon="77.101613"><time>1970-01-01T00:00:01.000Z</time></trkpt>
			<trkpt lat="43.160505" lon="77.101692"><time>1970-01-01T00:00:01.000Z</time></trkpt>
			<trkpt lat="43.160451" lon="77.101701"><time>1970-01-01T00:00:01.000Z</time></trkpt>
			<trkpt lat="43.160260" lon="77.102098"><time>1970-01-01T00:00:01.000Z</time></trkpt>
			<trkpt lat="43.160150" lon="77.102211"><time>1970-01-01T00:00:01.000Z</time></trkpt>
			<trkpt lat="43.160096" lon="77.102468"><time>1970-01-01T00:00:01.000Z</time></trkpt>
			<trkpt lat="43.159976" lon="77.102785"><time>1970-01-01T00:00:01.000Z</time></trkpt>
			<trkpt lat="43.159570" lon="77.103558"><time>1970-01-01T00:00:01.000Z</time></trkpt>
			<trkpt lat="43.159598" lon="77.103609"><time>1970-01-01T00:00:01.000Z</time></trkpt>
			<trkpt lat="43.159590" lon="77.103538"><time>1970-01-01T00:00:01.000Z</time></trkpt>
			<trkpt lat="43.159514" lon="77.103608"><time>1970-01-01T00:00:01.000Z</time></trkpt>
			<trkpt lat="43.159351" lon="77.103886"><time>1970-01-01T00:00:01.000Z</time></trkpt>
			<trkpt lat="43.159249" lon="77.104292"><time>1970-01-01T00:00:01.000Z</time></trkpt>
			<trkpt lat="43.159104" lon="77.104589"><time>1970-01-01T00:00:01.000Z</time></trkpt>
			<trkpt lat="43.158940" lon="77.104723"><time>1970-01-01T00:00:01.000Z</time></trkpt>
			<trkpt lat="43.158792" lon="77.104980"><time>1970-01-01T00:00:01.000Z</time></trkpt>
			<trkpt lat="43.158658" lon="77.105085"><time>1970-01-01T00:00:01.000Z</time></trkpt>
			<trkpt lat="43.158567" lon="77.105325"><time>1970-01-01T00:00:01.000Z</time></trkpt>
			<trkpt lat="43.158439" lon="77.105448"><time>1970-01-01T00:00:01.000Z</time></trkpt>
			<trkpt lat="43.158440" lon="77.105584"><time>1970-01-01T00:00:01.000Z</time></trkpt>
			<trkpt lat="43.158353" lon="77.105748"><time>1970-01-01T00:00:01.000Z</time></trkpt>
			<trkpt lat="43.158288" lon="77.105989"><time>1970-01-01T00:00:01.000Z</time></trkpt>
			<trkpt lat="43.158185" lon="77.106117"><time>1970-01-01T00:00:01.000Z</time></trkpt>
			<trkpt lat="43.158184" lon="77.106305"><time>1970-01-01T00:00:01.000Z</time></trkpt>
			<trkpt lat="43.158072" lon="77.106670"><time>1970-01-01T00:00:01.000Z</time></trkpt>
			<trkpt lat="43.157935" lon="77.106935"><time>1970-01-01T00:00:01.000Z</time></trkpt>
			<trkpt lat="43.157914" lon="77.107065"><time>1970-01-01T00:00:01.000Z</time></trkpt>
			<trkpt lat="43.157936" lon="77.107194"><time>1970-01-01T00:00:01.000Z</time></trkpt>
			<trkpt lat="43.157894" lon="77.107230"><time>1970-01-01T00:00:01.000Z</time></trkpt>
			<trkpt lat="43.157866" lon="77.107346"><time>1970-01-01T00:00:01.000Z</time></trkpt>
			<trkpt lat="43.157430" lon="77.107928"><time>1970-01-01T00:00:01.000Z</time></trkpt>
			<trkpt lat="43.157104" lon="77.108529"><time>1970-01-01T00:00:01.000Z</time></trkpt>
			<trkpt lat="43.157055" lon="77.108710"><time>1970-01-01T00:00:01.000Z</time></trkpt>
			<trkpt lat="43.156975" lon="77.108801"><time>1970-01-01T00:00:01.000Z</time></trkpt>
			<trkpt lat="43.157017" lon="77.108766"><time>1970-01-01T00:00:01.000Z</time></trkpt>
			<trkpt lat="43.156521" lon="77.109205"><time>1970-01-01T00:00:01.000Z</time></trkpt>
			<trkpt lat="43.156413" lon="77.109359"><time>1970-01-01T00:00:01.000Z</time></trkpt>
			<trkpt lat="43.156326" lon="77.109402"><time>1970-01-01T00:00:01.000Z</time></trkpt>
			<trkpt lat="43.156361" lon="77.109444"><time>1970-01-01T00:00:01.000Z</time></trkpt>
			<trkpt lat="43.156330" lon="77.109499"><time>1970-01-01T00:00:01.000Z</time></trkpt>
			<trkpt lat="43.156016" lon="77.109827"><time>1970-01-01T00:00:01.000Z</time></trkpt>
			<trkpt lat="43.155934" lon="77.110229"><time>1970-01-01T00:00:01.000Z</time></trkpt>
			<trkpt lat="43.155945" lon="77.110368"><time>1970-01-01T00:00:01.000Z</time></trkpt>
			<trkpt lat="43.155824" lon="77.110822"><time>1970-01-01T00:00:01.000Z</time></trkpt>
			<trkpt lat="43.155830" lon="77.111091"><time>1970-01-01T00:00:01.000Z</time></trkpt>
			<trkpt lat="43.155778" lon="77.111282"><time>1970-01-01T00:00:01.000Z</time></trkpt>
			<trkpt lat="43.155801" lon="77.111571"><time>1970-01-01T00:00:01.000Z</time></trkpt>
			<trkpt lat="43.155638" lon="77.111908"><time>1970-01-01T00:00:01.000Z</time></trkpt>
			<trkpt lat="43.155401" lon="77.112149"><time>1970-01-01T00:00:01.000Z</time></trkpt>
			<trkpt lat="43.155296" lon="77.112439"><time>1970-01-01T00:00:01.000Z</time></trkpt>
			<trkpt lat="43.155319" lon="77.112645"><time>1970-01-01T00:00:01.000Z</time></trkpt>
			<trkpt lat="43.155365" lon="77.112779"><time>1970-01-01T00:00:01.000Z</time></trkpt>
			<trkpt lat="43.155408" lon="77.112803"><time>1970-01-01T00:00:01.000Z</time></trkpt>
			<trkpt lat="43.155349" lon="77.113326"><time>1970-01-01T00:00:01.000Z</time></trkpt>
			<trkpt lat="43.155365" lon="77.113462"><time>1970-01-01T00:00:01.000Z</time></trkpt>
			<trkpt lat="43.155301" lon="77.113635"><time>1970-01-01T00:00:01.000Z</time></trkpt>
			<trkpt lat="43.155398" lon="77.113958"><time>1970-01-01T00:00:01.000Z</time></trkpt>
			<trkpt lat="43.155399" lon="77.114089"><time>1970-01-01T00:00:01.000Z</time></trkpt>
			<trkpt lat="43.155319" lon="77.114351"><time>1970-01-01T00:00:01.000Z</time></trkpt>
			<trkpt lat="43.155144" lon="77.114452"><time>1970-01-01T00:00:01.000Z</time></trkpt>
			<trkpt lat="43.155032" lon="77.114570"><time>1970-01-01T00:00:01.000Z</time></trkpt>
			<trkpt lat="43.154587" lon="77.114730"><time>1970-01-01T00:00:01.000Z</time></trkpt>
			<trkpt lat="43.154208" lon="77.114485"><time>1970-01-01T00:00:01.000Z</time></trkpt>
			<trkpt lat="43.154013" lon="77.114473"><time>1970-01-01T00:00:01.000Z</time></trkpt>
			<trkpt lat="43.153914" lon="77.114505"><time>1970-01-01T00:00:01.000Z</time></trkpt>
			<trkpt lat="43.153670" lon="77.114452"><time>1970-01-01T00:00:01.000Z</time></trkpt>
			<trkpt lat="43.153529" lon="77.114499"><time>1970-01-01T00:00:01.000Z</time></trkpt>
			<trkpt lat="43.152925" lon="77.114579"><time>1970-01-01T00:00:01.000Z</time></trkpt>
			<trkpt lat="43.152802" lon="77.114658"><time>1970-01-01T00:00:01.000Z</time></trkpt>
			<trkpt lat="43.152659" lon="77.114922"><time>1970-01-01T00:00:01.000Z</time></trkpt>
			<trkpt lat="43.152473" lon="77.114863"><time>1970-01-01T00:00:01.000Z</time></trkpt>
			<trkpt lat="43.152382" lon="77.114906"><time>1970-01-01T00:00:01.000Z</time></trkpt>
			<trkpt lat="43.152236" lon="77.114909"><time>1970-01-01T00:00:01.000Z</time></trkpt>
			<trkpt lat="43.151909" lon="77.114796"><time>1970-01-01T00:00:01.000Z</time></trkpt>
			<trkpt lat="43.151595" lon="77.114853"><time>1970-01-01T00:00:01.000Z</time></trkpt>
			<trkpt lat="43.151507" lon="77.114832"><time>1970-01-01T00:00:01.000Z</time></trkpt>
			<trkpt lat="43.151456" lon="77.114931"><time>1970-01-01T00:00:01.000Z</time></trkpt>
			<trkpt lat="43.151312" lon="77.114921"><time>1970-01-01T00:00:01.000Z</time></trkpt>
			<trkpt lat="43.151228" lon="77.114864"><time>1970-01-01T00:00:01.000Z</time></trkpt>
			<trkpt lat="43.151137" lon="77.114888"><time>1970-01-01T00:00:01.000Z</time></trkpt>
			<trkpt lat="43.151097" lon="77.114854"><time>1970-01-01T00:00:01.000Z</time></trkpt>
			<trkpt lat="43.151077" lon="77.114911"><time>1970-01-01T00:00:01.000Z</time></trkpt>
			<trkpt lat="43.150948" lon="77.114853"><time>1970-01-01T00:00:01.000Z</time></trkpt>
			<trkpt lat="43.150854" lon="77.114864"><time>1970-01-01T00:00:01.000Z</time></trkpt>
			<trkpt lat="43.150722" lon="77.115037"><time>1970-01-01T00:00:01.000Z</time></trkpt>
			<trkpt lat="43.150596" lon="77.114963"><time>1970-01-01T00:00:01.000Z</time></trkpt>
			<trkpt lat="43.150513" lon="77.115036"><time>1970-01-01T00:00:01.000Z</time></trkpt>
			<trkpt lat="43.150317" lon="77.115092"><time>1970-01-01T00:00:01.000Z</time></trkpt>
			<trkpt lat="43.150288" lon="77.115209"><time>1970-01-01T00:00:01.000Z</time></trkpt>
			<trkpt lat="43.150031" lon="77.115364"><time>1970-01-01T00:00:01.000Z</time></trkpt>
			<trkpt lat="43.149977" lon="77.115467"><time>1970-01-01T00:00:01.000Z</time></trkpt>
		</trkseg>
	</trk>
</gpx>